[{"OBJECT_NAME":"CUTE-1.7+APD II (CO-65)","OBJECT_ID":"2008-021C","EPOCH":"2026-03-09T21:54:04.726080","MEAN_MOTION":15.08376872,"ECCENTRICITY":0.00096053,"INCLINATION":97.8207,"RA_OF_ASC_NODE":48.3884,"ARG_OF_PERICENTER":18.7003,"MEAN_ANOMALY":341.4575,"EPHEMERIS_TYPE":0,"CLASSIFICATION_TYPE":"U","NORAD_CAT_ID":32785,"ELEMENT_SET_NO":999,"REV_AT_EPOCH":97022,"BSTAR":0.00047295391,"MEAN_MOTION_DOT":7.295e-5,"MEAN_MOTION_DDOT":0},{"OBJECT_NAME":"STARLINK-3299","OBJECT_ID":"2022-001AE","EPOCH":"2026-03-09T14:18:16.312896","MEAN_MOTION":15.08837485,"ECCENTRICITY":0.0001143,"INCLINATION":53.2175,"RA_OF_ASC_NODE":169.6098,"ARG_OF_PERICENTER":94.0451,"MEAN_ANOMALY":266.0672,"EPHEMERIS_TYPE":0,"CLASSIFICATION_TYPE":"U","NORAD_CAT_ID":50831,"ELEMENT_SET_NO":999,"REV_AT_EPOCH":23039,"BSTAR":7.5285e-5,"MEAN_MOTION_DOT":9.1e-6,"MEAN_MOTION_DDOT":0}]
